GSAT0205 (GALILEO 9)    
1 40889U 15045A   26086.36399919 -.00000011  00000+0  00000+0 0  9996
2 40889  54.9729 223.9518 0004152 269.7313  90.1696  1.67410754 65591
